{
  "norad_id": 57938,
  "name": "STARLINK-30710",
  "history": [
    {
      "epoch": "2026-03-28T19:36:57.947904",
      "apogee_km": 475.93620775712134,
      "perigee_km": 474.5205766017125,
      "latitude_deg": -19.543414771506953,
      "longitude_deg": 52.2643865600694,
      "semi_major_axis_km": 6853.365392179417,
      "eccentricity": 0.00010328,
      "inclination_deg": 53.1598,
      "raan_deg": 285.3717,
      "arg_perigee_deg": 87.8176,
      "mean_anomaly_deg": 272.2943,
      "mean_motion_rev_day": 15.30195538
    }
  ]
}